{"type":"FeatureCollection","name":"Sandur localities and schematic geology","crs":{"type":"name","properties":{"name":"urn:ogc:def:crs:EPSG::32643"}},"features":[{"type":"Feature","geometry":{"type":"Polygon","coordinates":[[[651050.0,1685225.0],[651275.0,1685450.0],[651725.0,1685450.0],[652175.0,1685450.0],[652625.0,1685450.0],[652850.0,1685225.0],[653075.0,1685000.0],[653525.0,1685000.0],[653750.0,1684775.0],[653975.0,1684550.0],[654200.0,1684325.0],[654425.0,1684100.0],[654650.0,1683875.0],[654875.0,1683650.0],[655100.0,1683425.0],[655325.0,1683200.0],[655550.0,1682975.0],[655775.0,1682750.0],[656225.0,1682750.0],[656675.0,1682750.0],[656900.0,1682525.0],[657125.0,1682300.0],[657575.0,1682300.0],[657800.0,1682075.0],[658025.0,1681850.0],[658475.0,1681850.0],[658925.0,1681850.0],[659150.0,1681625.0],[659375.0,1681400.0],[659825.0,1681400.0],[660275.0,1681400.0],[660725.0,1681400.0],[660950.0,1681175.0],[661175.0,1680950.0],[661400.0,1680725.0],[661625.0,1680500.0],[662075.0,1680500.0],[662525.0,1680500.0],[662975.0,1680500.0],[663200.0,1680275.0],[663425.0,1680050.0],[663875.0,1680050.0],[664100.0,1680275.0],[664325.0,1680500.0],[664775.0,1680500.0],[665225.0,1680500.0],[665675.0,1680500.0],[665900.0,1680725.0],[666125.0,1680950.0],[666350.0,1681175.0],[666575.0,1681400.0],[666800.0,1681625.0],[667025.0,1681850.0],[667475.0,1681850.0],[667700.0,1681625.0],[667925.0,1681400.0],[668150.0,1681175.0],[667925.0,1680950.0],[667700.0,1680725.0],[667475.0,1680500.0],[667250.0,1680275.0],[667025.0,1680050.0],[666800.0,1679825.0],[666575.0,1679600.0],[666350.0,1679375.0],[666350.0,1678925.0],[666350.0,1678475.0],[666350.0,1678025.0],[666125.0,1677800.0],[665900.0,1677575.0],[666125.0,1677350.0],[666350.0,1677125.0],[666350.0,1676675.0],[666350.0,1676225.0],[666350.0,1675775.0],[666575.0,1675550.0],[666800.0,1675325.0],[667025.0,1675100.0],[667250.0,1674875.0],[667475.0,1674650.0],[667700.0,1674425.0],[667925.0,1674200.0],[668150.0,1673975.0],[668375.0,1673750.0],[668600.0,1673525.0],[668825.0,1673300.0],[669050.0,1673075.0],[669275.0,1672850.0],[669500.0,1672625.0],[669725.0,1672400.0],[669950.0,1672175.0],[670175.0,1671950.0],[670400.0,1671725.0],[670625.0,1671500.0],[670850.0,1671275.0],[671075.0,1671050.0],[671525.0,1671050.0],[671975.0,1671050.0],[672425.0,1671050.0],[672650.0,1670825.0],[672875.0,1670600.0],[673100.0,1670825.0],[673325.0,1671050.0],[673775.0,1671050.0],[674225.0,1671050.0],[674675.0,1671050.0],[674900.0,1671275.0],[675125.0,1671500.0],[675575.0,1671500.0],[675800.0,1671275.0],[676025.0,1671050.0],[676250.0,1670825.0],[676250.0,1670375.0],[676250.0,1669925.0],[676475.0,1669700.0],[676700.0,1669475.0],[676700.0,1669025.0],[676925.0,1668800.0],[677150.0,1668575.0],[677150.0,1668125.0],[677150.0,1667675.0],[677150.0,1667225.0],[677150.0,1666775.0],[677150.0,1666325.0],[677150.0,1665875.0],[677150.0,1665425.0],[677150.0,1664975.0],[677375.0,1664750.0],[677600.0,1664525.0],[677600.0,1664075.0],[677600.0,1663625.0],[677600.0,1663175.0],[677825.0,1662950.0],[678050.0,1662725.0],[678050.0,1662275.0],[678050.0,1661825.0],[678275.0,1661600.0],[678500.0,1661375.0],[678725.0,1661150.0],[678950.0,1660925.0],[679175.0,1660700.0],[679400.0,1660475.0],[679625.0,1660250.0],[679850.0,1660025.0],[680075.0,1659800.0],[680300.0,1659575.0],[680300.0,1659125.0],[680300.0,1658675.0],[680300.0,1658225.0],[680525.0,1658000.0],[680750.0,1657775.0],[680750.0,1657325.0],[680975.0,1657100.0],[681200.0,1656875.0],[680975.0,1656650.0],[680750.0,1656425.0],[680525.0,1656200.0],[680300.0,1656425.0],[680075.0,1656650.0],[679850.0,1656425.0],[679625.0,1656200.0],[679400.0,1656425.0],[679175.0,1656650.0],[678950.0,1656875.0],[678725.0,1657100.0],[678500.0,1657325.0],[678275.0,1657550.0],[678050.0,1657775.0],[677825.0,1658000.0],[677375.0,1658000.0],[676925.0,1658000.0],[676475.0,1658000.0],[676250.0,1658225.0],[676025.0,1658450.0],[675800.0,1658225.0],[675575.0,1658000.0],[675125.0,1658000.0],[674675.0,1658000.0],[674225.0,1658000.0],[674000.0,1657775.0],[673775.0,1657550.0],[673550.0,1657325.0],[673325.0,1657100.0],[673100.0,1656875.0],[672875.0,1656650.0],[672425.0,1656650.0],[671975.0,1656650.0],[671525.0,1656650.0],[671075.0,1656650.0],[670850.0,1656875.0],[670625.0,1657100.0],[670175.0,1657100.0],[669725.0,1657100.0],[669275.0,1657100.0],[669050.0,1657325.0],[668825.0,1657550.0],[668375.0,1657550.0],[667925.0,1657550.0],[667475.0,1657550.0],[667250.0,1657775.0],[667025.0,1658000.0],[666575.0,1658000.0],[666350.0,1658225.0],[666125.0,1658450.0],[665900.0,1658675.0],[665675.0,1658900.0],[665450.0,1659125.0],[665225.0,1659350.0],[665000.0,1659575.0],[664775.0,1659800.0],[664550.0,1660025.0],[664325.0,1660250.0],[664100.0,1660475.0],[663875.0,1660700.0],[663650.0,1660925.0],[663650.0,1661375.0],[663650.0,1661825.0],[663425.0,1662050.0],[663200.0,1662275.0],[663200.0,1662725.0],[663200.0,1663175.0],[662975.0,1663400.0],[662750.0,1663625.0],[662525.0,1663850.0],[662300.0,1664075.0],[662300.0,1664525.0],[662075.0,1664750.0],[661850.0,1664975.0],[661625.0,1665200.0],[661400.0,1665425.0],[661175.0,1665650.0],[660950.0,1665875.0],[660725.0,1666100.0],[660500.0,1666325.0],[660275.0,1666550.0],[660050.0,1666775.0],[659825.0,1667000.0],[659600.0,1667225.0],[659375.0,1667450.0],[659150.0,1667675.0],[658925.0,1667900.0],[658700.0,1668125.0],[658475.0,1668350.0],[658250.0,1668575.0],[658025.0,1668800.0],[657800.0,1669025.0],[657575.0,1669250.0],[657350.0,1669475.0],[657350.0,1669925.0],[657350.0,1670375.0],[657350.0,1670825.0],[657125.0,1671050.0],[656900.0,1671275.0],[656900.0,1671725.0],[656675.0,1671950.0],[656450.0,1672175.0],[656450.0,1672625.0],[656225.0,1672850.0],[656000.0,1673075.0],[655775.0,1673300.0],[655550.0,1673525.0],[655550.0,1673975.0],[655550.0,1674425.0],[655325.0,1674650.0],[655100.0,1674875.0],[654875.0,1675100.0],[654650.0,1675325.0],[654425.0,1675550.0],[654200.0,1675775.0],[654200.0,1676225.0],[653975.0,1676450.0],[653750.0,1676675.0],[653525.0,1676900.0],[653300.0,1677125.0],[653300.0,1677575.0],[653075.0,1677800.0],[652850.0,1678025.0],[652625.0,1678250.0],[652400.0,1678475.0],[652175.0,1678700.0],[651950.0,1678925.0],[651725.0,1679150.0],[651500.0,1679375.0],[651275.0,1679600.0],[651050.0,1679825.0],[650825.0,1680050.0],[650600.0,1680275.0],[650375.0,1680500.0],[650150.0,1680725.0],[649925.0,1680950.0],[649700.0,1681175.0],[649475.0,1681400.0],[649250.0,1681625.0],[649250.0,1682075.0],[649025.0,1682300.0],[648800.0,1682525.0],[648575.0,1682750.0],[648350.0,1682975.0],[648125.0,1683200.0],[647900.0,1683425.0],[648125.0,1683650.0],[648350.0,1683875.0],[648575.0,1684100.0],[649025.0,1684100.0],[649475.0,1684100.0],[649925.0,1684100.0],[650150.0,1684325.0],[650375.0,1684550.0],[650600.0,1684775.0],[650825.0,1685000.0],[651050.0,1685225.0],[651050.0,1685225.0]]]},"properties":{"layer":"Schist belt (schematic, DEM)","name":"Sandur schist belt","color":"#06d6a0"}},{"type":"Feature","geometry":{"type":"Polygon","coordinates":[[[687050.0,1676675.0],[687275.0,1676900.0],[687725.0,1676900.0],[687950.0,1676675.0],[688175.0,1676450.0],[688400.0,1676225.0],[688400.0,1675775.0],[688400.0,1675325.0],[688400.0,1674875.0],[688625.0,1674650.0],[688850.0,1674425.0],[688850.0,1673975.0],[689075.0,1673750.0],[689300.0,1673525.0],[689525.0,1673300.0],[689750.0,1673075.0],[689975.0,1672850.0],[690200.0,1672625.0],[690425.0,1672400.0],[690650.0,1672175.0],[690875.0,1671950.0],[691325.0,1671950.0],[691775.0,1671950.0],[692225.0,1671950.0],[692450.0,1671725.0],[692675.0,1671500.0],[692900.0,1671275.0],[693125.0,1671050.0],[693350.0,1670825.0],[693575.0,1670600.0],[694025.0,1670600.0],[694475.0,1670600.0],[694700.0,1670375.0],[694925.0,1670150.0],[695150.0,1669925.0],[695375.0,1669700.0],[695600.0,1669475.0],[695825.0,1669250.0],[696050.0,1669025.0],[696275.0,1668800.0],[696725.0,1668800.0],[697175.0,1668800.0],[697400.0,1668575.0],[697625.0,1668350.0],[698075.0,1668350.0],[698300.0,1668125.0],[698525.0,1667900.0],[698750.0,1667675.0],[698750.0,1667225.0],[698750.0,1666775.0],[698750.0,1666325.0],[698975.0,1666100.0],[699200.0,1665875.0],[699425.0,1665650.0],[699650.0,1665425.0],[699875.0,1665200.0],[700100.0,1664975.0],[700325.0,1664750.0],[700550.0,1664525.0],[700775.0,1664300.0],[701225.0,1664300.0],[701675.0,1664300.0],[702125.0,1664300.0],[702350.0,1664075.0],[702575.0,1663850.0],[703025.0,1663850.0],[703250.0,1664075.0],[703475.0,1664300.0],[703925.0,1664300.0],[704375.0,1664300.0],[704600.0,1664075.0],[704825.0,1663850.0],[705050.0,1663625.0],[704825.0,1663400.0],[704600.0,1663175.0],[704375.0,1662950.0],[703925.0,1662950.0],[703475.0,1662950.0],[703025.0,1662950.0],[702800.0,1662725.0],[702575.0,1662500.0],[702350.0,1662275.0],[702125.0,1662050.0],[701900.0,1661825.0],[701675.0,1661600.0],[701225.0,1661600.0],[701000.0,1661825.0],[700775.0,1662050.0],[700550.0,1662275.0],[700550.0,1662725.0],[700550.0,1663175.0],[700550.0,1663625.0],[700325.0,1663850.0],[700100.0,1664075.0],[699875.0,1664300.0],[699650.0,1664525.0],[699425.0,1664750.0],[699200.0,1664975.0],[698975.0,1665200.0],[698750.0,1665425.0],[698525.0,1665650.0],[698300.0,1665875.0],[698075.0,1666100.0],[697625.0,1666100.0],[697175.0,1666100.0],[696725.0,1666100.0],[696500.0,1666325.0],[696275.0,1666550.0],[695825.0,1666550.0],[695375.0,1666550.0],[694925.0,1666550.0],[694700.0,1666775.0],[694475.0,1667000.0],[694025.0,1667000.0],[693575.0,1667000.0],[693125.0,1667000.0],[692900.0,1666775.0],[692675.0,1666550.0],[692225.0,1666550.0],[691775.0,1666550.0],[691325.0,1666550.0],[691100.0,1666775.0],[690875.0,1667000.0],[690425.0,1667000.0],[690200.0,1667225.0],[689975.0,1667450.0],[689750.0,1667675.0],[689525.0,1667900.0],[689300.0,1668125.0],[689075.0,1668350.0],[688850.0,1668575.0],[688850.0,1669025.0],[688625.0,1669250.0],[688400.0,1669475.0],[688625.0,1669700.0],[688850.0,1669925.0],[688850.0,1670375.0],[688625.0,1670600.0],[688400.0,1670825.0],[688400.0,1671275.0],[688400.0,1671725.0],[688400.0,1672175.0],[688175.0,1672400.0],[687950.0,1672625.0],[687725.0,1672850.0],[687500.0,1673075.0],[687500.0,1673525.0],[687275.0,1673750.0],[687050.0,1673975.0],[687050.0,1674425.0],[686825.0,1674650.0],[686600.0,1674875.0],[686600.0,1675325.0],[686600.0,1675775.0],[686600.0,1676225.0],[686825.0,1676450.0],[687050.0,1676675.0],[687050.0,1676675.0]]]},"properties":{"layer":"Schist belt (schematic, DEM)","name":"Sandur schist belt","color":"#06d6a0"}},{"type":"Feature","geometry":{"type":"Polygon","coordinates":[[[651050.0,1685225.0],[651275.0,1685450.0],[651725.0,1685450.0],[652175.0,1685450.0],[652625.0,1685450.0],[652850.0,1685225.0],[653075.0,1685000.0],[653525.0,1685000.0],[653750.0,1684775.0],[653975.0,1684550.0],[654200.0,1684325.0],[654425.0,1684100.0],[654650.0,1683875.0],[654650.0,1683425.0],[654650.0,1682975.0],[654875.0,1682750.0],[655100.0,1682525.0],[655325.0,1682300.0],[655775.0,1682300.0],[656225.0,1682300.0],[656450.0,1682525.0],[656675.0,1682750.0],[656900.0,1682525.0],[657125.0,1682300.0],[657575.0,1682300.0],[657800.0,1682075.0],[658025.0,1681850.0],[658250.0,1681625.0],[658475.0,1681400.0],[658700.0,1681625.0],[658925.0,1681850.0],[659150.0,1681625.0],[659375.0,1681400.0],[659600.0,1681175.0],[659375.0,1680950.0],[659150.0,1680725.0],[659150.0,1680275.0],[659375.0,1680050.0],[659600.0,1679825.0],[659825.0,1679600.0],[660050.0,1679375.0],[660275.0,1679150.0],[660725.0,1679150.0],[660950.0,1679375.0],[660725.0,1679600.0],[660500.0,1679825.0],[660500.0,1680275.0],[660275.0,1680500.0],[660050.0,1680725.0],[660275.0,1680950.0],[660500.0,1681175.0],[660725.0,1681400.0],[660950.0,1681175.0],[661175.0,1680950.0],[661400.0,1680725.0],[661400.0,1680275.0],[661625.0,1680050.0],[661850.0,1679825.0],[661625.0,1679600.0],[661400.0,1679375.0],[661400.0,1678925.0],[661625.0,1678700.0],[661850.0,1678475.0],[662075.0,1678250.0],[662300.0,1678025.0],[662300.0,1677575.0],[662525.0,1677350.0],[662750.0,1677575.0],[662975.0,1677800.0],[663200.0,1677575.0],[663425.0,1677350.0],[663650.0,1677125.0],[663650.0,1676675.0],[663875.0,1676450.0],[664325.0,1676450.0],[664550.0,1676225.0],[664775.0,1676000.0],[665225.0,1676000.0],[665675.0,1676000.0],[665900.0,1675775.0],[666125.0,1675550.0],[666575.0,1675550.0],[666800.0,1675325.0],[667025.0,1675100.0],[667250.0,1674875.0],[667475.0,1674650.0],[667700.0,1674425.0],[667925.0,1674200.0],[668150.0,1673975.0],[668375.0,1673750.0],[668600.0,1673525.0],[668825.0,1673300.0],[669050.0,1673075.0],[669050.0,1672625.0],[669275.0,1672400.0],[669500.0,1672175.0],[669275.0,1671950.0],[669050.0,1671725.0],[668825.0,1671500.0],[668375.0,1671500.0],[668150.0,1671725.0],[667925.0,1671950.0],[667475.0,1671950.0],[667250.0,1672175.0],[667025.0,1672400.0],[666800.0,1672625.0],[666575.0,1672850.0],[666350.0,1673075.0],[666350.0,1673525.0],[666125.0,1673750.0],[665675.0,1673750.0],[665225.0,1673750.0],[664775.0,1673750.0],[664550.0,1673525.0],[664325.0,1673300.0],[663875.0,1673300.0],[663650.0,1673525.0],[663425.0,1673750.0],[663200.0,1673975.0],[662975.0,1674200.0],[662750.0,1674425.0],[662525.0,1674650.0],[662300.0,1674875.0],[662075.0,1675100.0],[661850.0,1675325.0],[661625.0,1675550.0],[661400.0,1675775.0],[661175.0,1676000.0],[660950.0,1676225.0],[660725.0,1676450.0],[660500.0,1676675.0],[660275.0,1676900.0],[660050.0,1677125.0],[659825.0,1677350.0],[659600.0,1677575.0],[659375.0,1677800.0],[659150.0,1678025.0],[658925.0,1678250.0],[658700.0,1678475.0],[658700.0,1678925.0],[658475.0,1679150.0],[658025.0,1679150.0],[657800.0,1679375.0],[657575.0,1679600.0],[657125.0,1679600.0],[656900.0,1679825.0],[656675.0,1680050.0],[656450.0,1680275.0],[656225.0,1680500.0],[656000.0,1680725.0],[655775.0,1680950.0],[655325.0,1680950.0],[655100.0,1681175.0],[654875.0,1681400.0],[654650.0,1681625.0],[654425.0,1681850.0],[654200.0,1682075.0],[653975.0,1682300.0],[653525.0,1682300.0],[653300.0,1682525.0],[653075.0,1682750.0],[652850.0,1682975.0],[652625.0,1683200.0],[652175.0,1683200.0],[651950.0,1683425.0],[651725.0,1683650.0],[651500.0,1683875.0],[651275.0,1684100.0],[651050.0,1684325.0],[650825.0,1684550.0],[650600.0,1684775.0],[650825.0,1685000.0],[651050.0,1685225.0],[651050.0,1685225.0]]]},"properties":{"layer":"Iron-formation ridges (DEM)","name":"ridge","color":"#7bd389"}},{"type":"Feature","geometry":{"type":"Polygon","coordinates":[[[648350.0,1683875.0],[648575.0,1684100.0],[648800.0,1683875.0],[649025.0,1683650.0],[649250.0,1683425.0],[649475.0,1683200.0],[649700.0,1682975.0],[649925.0,1682750.0],[650375.0,1682750.0],[650600.0,1682525.0],[650825.0,1682300.0],[651050.0,1682075.0],[651050.0,1681625.0],[651275.0,1681400.0],[651725.0,1681400.0],[651950.0,1681175.0],[652175.0,1680950.0],[652400.0,1680725.0],[652400.0,1680275.0],[652400.0,1679825.0],[652625.0,1679600.0],[652850.0,1679375.0],[652625.0,1679150.0],[652400.0,1678925.0],[652175.0,1678700.0],[651950.0,1678925.0],[651725.0,1679150.0],[651500.0,1679375.0],[651275.0,1679600.0],[651050.0,1679825.0],[650825.0,1680050.0],[650600.0,1680275.0],[650375.0,1680500.0],[650150.0,1680725.0],[649925.0,1680950.0],[649700.0,1681175.0],[649475.0,1681400.0],[649250.0,1681625.0],[649250.0,1682075.0],[649025.0,1682300.0],[648800.0,1682525.0],[648575.0,1682750.0],[648350.0,1682975.0],[648125.0,1683200.0],[647900.0,1683425.0],[648125.0,1683650.0],[648350.0,1683875.0],[648350.0,1683875.0]]]},"properties":{"layer":"Iron-formation ridges (DEM)","name":"ridge","color":"#7bd389"}},{"type":"Feature","geometry":{"type":"Polygon","coordinates":[[[666800.0,1681625.0],[667025.0,1681850.0],[667475.0,1681850.0],[667700.0,1681625.0],[667925.0,1681400.0],[668150.0,1681175.0],[667925.0,1680950.0],[667700.0,1680725.0],[667475.0,1680500.0],[667250.0,1680275.0],[667025.0,1680050.0],[666800.0,1680275.0],[666575.0,1680500.0],[666350.0,1680725.0],[666350.0,1681175.0],[666575.0,1681400.0],[666800.0,1681625.0],[666800.0,1681625.0]]]},"properties":{"layer":"Iron-formation ridges (DEM)","name":"ridge","color":"#7bd389"}},{"type":"Feature","geometry":{"type":"Polygon","coordinates":[[[653300.0,1678475.0],[653525.0,1678700.0],[653750.0,1678475.0],[653975.0,1678250.0],[654200.0,1678025.0],[654425.0,1677800.0],[654650.0,1677575.0],[654650.0,1677125.0],[654875.0,1676900.0],[655100.0,1676675.0],[655325.0,1676450.0],[655550.0,1676225.0],[655775.0,1676000.0],[656000.0,1675775.0],[656000.0,1675325.0],[656225.0,1675100.0],[656675.0,1675100.0],[656900.0,1674875.0],[657125.0,1674650.0],[657350.0,1674425.0],[657350.0,1673975.0],[657575.0,1673750.0],[657800.0,1673525.0],[658025.0,1673300.0],[658250.0,1673075.0],[658250.0,1672625.0],[658475.0,1672400.0],[658700.0,1672175.0],[658700.0,1671725.0],[658925.0,1671500.0],[659150.0,1671275.0],[659150.0,1670825.0],[659375.0,1670600.0],[659600.0,1670375.0],[659600.0,1669925.0],[659825.0,1669700.0],[660275.0,1669700.0],[660500.0,1669475.0],[660725.0,1669250.0],[661175.0,1669250.0],[661400.0,1669025.0],[661625.0,1668800.0],[661850.0,1668575.0],[661850.0,1668125.0],[662075.0,1667900.0],[662300.0,1667675.0],[662525.0,1667450.0],[662750.0,1667225.0],[662750.0,1666775.0],[662975.0,1666550.0],[663200.0,1666325.0],[662975.0,1666100.0],[662750.0,1665875.0],[662525.0,1665650.0],[662075.0,1665650.0],[661625.0,1665650.0],[661175.0,1665650.0],[660950.0,1665875.0],[660725.0,1666100.0],[660500.0,1666325.0],[660275.0,1666550.0],[660050.0,1666775.0],[659825.0,1667000.0],[659600.0,1667225.0],[659375.0,1667450.0],[659150.0,1667675.0],[658925.0,1667900.0],[658700.0,1668125.0],[658700.0,1668575.0],[658475.0,1668800.0],[658025.0,1668800.0],[657800.0,1669025.0],[657575.0,1669250.0],[657350.0,1669475.0],[657350.0,1669925.0],[657350.0,1670375.0],[657350.0,1670825.0],[657125.0,1671050.0],[656900.0,1671275.0],[656900.0,1671725.0],[656675.0,1671950.0],[656450.0,1672175.0],[656450.0,1672625.0],[656225.0,1672850.0],[656000.0,1673075.0],[655775.0,1673300.0],[655550.0,1673525.0],[655550.0,1673975.0],[655550.0,1674425.0],[655325.0,1674650.0],[655100.0,1674875.0],[654875.0,1675100.0],[654650.0,1675325.0],[654425.0,1675550.0],[654200.0,1675775.0],[654200.0,1676225.0],[653975.0,1676450.0],[653750.0,1676675.0],[653525.0,1676900.0],[653300.0,1677125.0],[653300.0,1677575.0],[653075.0,1677800.0],[652850.0,1678025.0],[653075.0,1678250.0],[653300.0,1678475.0],[653300.0,1678475.0]]]},"properties":{"layer":"Iron-formation ridges (DEM)","name":"ridge","color":"#7bd389"}},{"type":"Feature","geometry":{"type":"Polygon","coordinates":[[[687050.0,1676675.0],[687275.0,1676900.0],[687725.0,1676900.0],[687950.0,1676675.0],[688175.0,1676450.0],[688400.0,1676225.0],[688400.0,1675775.0],[688175.0,1675550.0],[687950.0,1675325.0],[688175.0,1675100.0],[688400.0,1674875.0],[688400.0,1674425.0],[688625.0,1674200.0],[688850.0,1673975.0],[688850.0,1673525.0],[689075.0,1673300.0],[689300.0,1673075.0],[689525.0,1672850.0],[689750.0,1672625.0],[689525.0,1672400.0],[689300.0,1672175.0],[689075.0,1671950.0],[688850.0,1672175.0],[688625.0,1672400.0],[688175.0,1672400.0],[687950.0,1672625.0],[687725.0,1672850.0],[687500.0,1673075.0],[687500.0,1673525.0],[687275.0,1673750.0],[687050.0,1673975.0],[687050.0,1674425.0],[686825.0,1674650.0],[686600.0,1674875.0],[686600.0,1675325.0],[686600.0,1675775.0],[686600.0,1676225.0],[686825.0,1676450.0],[687050.0,1676675.0],[687050.0,1676675.0]]]},"properties":{"layer":"Iron-formation ridges (DEM)","name":"ridge","color":"#7bd389"}},{"type":"Feature","geometry":{"type":"Polygon","coordinates":[[[692000.0,1671725.0],[692225.0,1671950.0],[692450.0,1671725.0],[692675.0,1671500.0],[692900.0,1671275.0],[693125.0,1671050.0],[693350.0,1670825.0],[693350.0,1670375.0],[693575.0,1670150.0],[693800.0,1670375.0],[694025.0,1670600.0],[694475.0,1670600.0],[694700.0,1670375.0],[694925.0,1670150.0],[695150.0,1669925.0],[695375.0,1669700.0],[695600.0,1669475.0],[695600.0,1669025.0],[695825.0,1668800.0],[696275.0,1668800.0],[696725.0,1668800.0],[697175.0,1668800.0],[697400.0,1668575.0],[697625.0,1668350.0],[698075.0,1668350.0],[698300.0,1668125.0],[698525.0,1667900.0],[698750.0,1667675.0],[698525.0,1667450.0],[698300.0,1667225.0],[698075.0,1667000.0],[697850.0,1666775.0],[697625.0,1666550.0],[697400.0,1666325.0],[697175.0,1666100.0],[696725.0,1666100.0],[696500.0,1666325.0],[696275.0,1666550.0],[695825.0,1666550.0],[695600.0,1666775.0],[695375.0,1667000.0],[695150.0,1667225.0],[694925.0,1667450.0],[694475.0,1667450.0],[694250.0,1667675.0],[694025.0,1667900.0],[693800.0,1668125.0],[693575.0,1668350.0],[693125.0,1668350.0],[692900.0,1668125.0],[692900.0,1667675.0],[693125.0,1667450.0],[693350.0,1667225.0],[693125.0,1667000.0],[692900.0,1666775.0],[692675.0,1666550.0],[692225.0,1666550.0],[691775.0,1666550.0],[691325.0,1666550.0],[691100.0,1666775.0],[690875.0,1667000.0],[690425.0,1667000.0],[690200.0,1667225.0],[689975.0,1667450.0],[689750.0,1667675.0],[689525.0,1667900.0],[689300.0,1668125.0],[689075.0,1668350.0],[688850.0,1668575.0],[688850.0,1669025.0],[688625.0,1669250.0],[688400.0,1669475.0],[688625.0,1669700.0],[688850.0,1669925.0],[689075.0,1670150.0],[689300.0,1669925.0],[689525.0,1669700.0],[689975.0,1669700.0],[690200.0,1669475.0],[690425.0,1669250.0],[690650.0,1669025.0],[690875.0,1668800.0],[691100.0,1669025.0],[691325.0,1669250.0],[691775.0,1669250.0],[692000.0,1669475.0],[691775.0,1669700.0],[691550.0,1669925.0],[691550.0,1670375.0],[691775.0,1670600.0],[692000.0,1670825.0],[691775.0,1671050.0],[691550.0,1671275.0],[691775.0,1671500.0],[692000.0,1671725.0],[692000.0,1671725.0]]]},"properties":{"layer":"Iron-formation ridges (DEM)","name":"ridge","color":"#7bd389"}},{"type":"Feature","geometry":{"type":"Polygon","coordinates":[[[674900.0,1671275.0],[675125.0,1671500.0],[675575.0,1671500.0],[675800.0,1671275.0],[676025.0,1671050.0],[676250.0,1670825.0],[676025.0,1670600.0],[675800.0,1670375.0],[676025.0,1670150.0],[676250.0,1669925.0],[676475.0,1669700.0],[676700.0,1669475.0],[676700.0,1669025.0],[676925.0,1668800.0],[677150.0,1668575.0],[677150.0,1668125.0],[677150.0,1667675.0],[677150.0,1667225.0],[677150.0,1666775.0],[677150.0,1666325.0],[677150.0,1665875.0],[677150.0,1665425.0],[677150.0,1664975.0],[676925.0,1664750.0],[676700.0,1664525.0],[676925.0,1664300.0],[677150.0,1664075.0],[677375.0,1663850.0],[677600.0,1663625.0],[677600.0,1663175.0],[677825.0,1662950.0],[678050.0,1662725.0],[677825.0,1662500.0],[677600.0,1662275.0],[677825.0,1662050.0],[678050.0,1661825.0],[677825.0,1661600.0],[677600.0,1661375.0],[677375.0,1661150.0],[677150.0,1661375.0],[676925.0,1661600.0],[676700.0,1661825.0],[676475.0,1662050.0],[676025.0,1662050.0],[675800.0,1662275.0],[675575.0,1662500.0],[675350.0,1662725.0],[675350.0,1663175.0],[675125.0,1663400.0],[674900.0,1663625.0],[674675.0,1663850.0],[674450.0,1664075.0],[674450.0,1664525.0],[674225.0,1664750.0],[674000.0,1664975.0],[673775.0,1665200.0],[673550.0,1665425.0],[673550.0,1665875.0],[673325.0,1666100.0],[673100.0,1666325.0],[673100.0,1666775.0],[672875.0,1667000.0],[672650.0,1667225.0],[672425.0,1667450.0],[672200.0,1667675.0],[671975.0,1667900.0],[671750.0,1668125.0],[671750.0,1668575.0],[671525.0,1668800.0],[671300.0,1669025.0],[671075.0,1669250.0],[670850.0,1669475.0],[671075.0,1669700.0],[671300.0,1669925.0],[671525.0,1670150.0],[671975.0,1670150.0],[672425.0,1670150.0],[672650.0,1669925.0],[672875.0,1669700.0],[673100.0,1669925.0],[673325.0,1670150.0],[673550.0,1669925.0],[673775.0,1669700.0],[674000.0,1669475.0],[674000.0,1669025.0],[674225.0,1668800.0],[674450.0,1668575.0],[674450.0,1668125.0],[674450.0,1667675.0],[674675.0,1667450.0],[674900.0,1667225.0],[675125.0,1667000.0],[675350.0,1667225.0],[675350.0,1667675.0],[675350.0,1668125.0],[675350.0,1668575.0],[675125.0,1668800.0],[674900.0,1669025.0],[674900.0,1669475.0],[674900.0,1669925.0],[674900.0,1670375.0],[674675.0,1670600.0],[674450.0,1670825.0],[674675.0,1671050.0],[674900.0,1671275.0],[674900.0,1671275.0]]]},"properties":{"layer":"Iron-formation ridges (DEM)","name":"ridge","color":"#7bd389"}},{"type":"Feature","geometry":{"type":"Polygon","coordinates":[[[668600.0,1667225.0],[668825.0,1667450.0],[669050.0,1667225.0],[669275.0,1667000.0],[669500.0,1666775.0],[669725.0,1666550.0],[669950.0,1666325.0],[669725.0,1666100.0],[669500.0,1665875.0],[669275.0,1665650.0],[669050.0,1665875.0],[668825.0,1666100.0],[668600.0,1666325.0],[668375.0,1666550.0],[668150.0,1666775.0],[668375.0,1667000.0],[668600.0,1667225.0],[668600.0,1667225.0]]]},"properties":{"layer":"Iron-formation ridges (DEM)","name":"ridge","color":"#7bd389"}},{"type":"Feature","geometry":{"type":"Polygon","coordinates":[[[662750.0,1664525.0],[662975.0,1664750.0],[663200.0,1664525.0],[663425.0,1664300.0],[663650.0,1664525.0],[663875.0,1664750.0],[664325.0,1664750.0],[664775.0,1664750.0],[665000.0,1664525.0],[665225.0,1664300.0],[665450.0,1664075.0],[665675.0,1663850.0],[665900.0,1663625.0],[665675.0,1663400.0],[665450.0,1663175.0],[665675.0,1662950.0],[666125.0,1662950.0],[666575.0,1662950.0],[666800.0,1662725.0],[667025.0,1662500.0],[667250.0,1662275.0],[667475.0,1662050.0],[667700.0,1661825.0],[667700.0,1661375.0],[667925.0,1661150.0],[668375.0,1661150.0],[668825.0,1661150.0],[669275.0,1661150.0],[669500.0,1660925.0],[669725.0,1660700.0],[670175.0,1660700.0],[670400.0,1660925.0],[670625.0,1661150.0],[670850.0,1660925.0],[671075.0,1660700.0],[671525.0,1660700.0],[671750.0,1660925.0],[671975.0,1661150.0],[672425.0,1661150.0],[672650.0,1661375.0],[672875.0,1661600.0],[673325.0,1661600.0],[673550.0,1661825.0],[673775.0,1662050.0],[674000.0,1661825.0],[674225.0,1661600.0],[674450.0,1661375.0],[674675.0,1661150.0],[675125.0,1661150.0],[675350.0,1660925.0],[675575.0,1660700.0],[675800.0,1660475.0],[676025.0,1660250.0],[676475.0,1660250.0],[676700.0,1660025.0],[676925.0,1659800.0],[677375.0,1659800.0],[677600.0,1659575.0],[677825.0,1659350.0],[678275.0,1659350.0],[678500.0,1659575.0],[678500.0,1660025.0],[678725.0,1660250.0],[678950.0,1660475.0],[679175.0,1660700.0],[679400.0,1660475.0],[679625.0,1660250.0],[679850.0,1660025.0],[680075.0,1659800.0],[680300.0,1659575.0],[680300.0,1659125.0],[680075.0,1658900.0],[679850.0,1658675.0],[680075.0,1658450.0],[680300.0,1658225.0],[680300.0,1657775.0],[680525.0,1657550.0],[680750.0,1657325.0],[680975.0,1657100.0],[681200.0,1656875.0],[680975.0,1656650.0],[680750.0,1656425.0],[680525.0,1656200.0],[680300.0,1656425.0],[680075.0,1656650.0],[679850.0,1656425.0],[679625.0,1656200.0],[679400.0,1656425.0],[679175.0,1656650.0],[678950.0,1656875.0],[678725.0,1657100.0],[678500.0,1657325.0],[678275.0,1657550.0],[678050.0,1657775.0],[677825.0,1658000.0],[677600.0,1658225.0],[677375.0,1658450.0],[677150.0,1658675.0],[676925.0,1658900.0],[676475.0,1658900.0],[676025.0,1658900.0],[675575.0,1658900.0],[675125.0,1658900.0],[674900.0,1658675.0],[674675.0,1658450.0],[674450.0,1658225.0],[674225.0,1658000.0],[674000.0,1657775.0],[673775.0,1657550.0],[673550.0,1657325.0],[673325.0,1657100.0],[673100.0,1656875.0],[672875.0,1656650.0],[672425.0,1656650.0],[671975.0,1656650.0],[671525.0,1656650.0],[671075.0,1656650.0],[670850.0,1656875.0],[670625.0,1657100.0],[670400.0,1657325.0],[670175.0,1657550.0],[669725.0,1657550.0],[669500.0,1657775.0],[669275.0,1658000.0],[668825.0,1658000.0],[668600.0,1657775.0],[668375.0,1657550.0],[667925.0,1657550.0],[667475.0,1657550.0],[667250.0,1657775.0],[667025.0,1658000.0],[666575.0,1658000.0],[666350.0,1658225.0],[666125.0,1658450.0],[665900.0,1658675.0],[665675.0,1658900.0],[665450.0,1659125.0],[665225.0,1659350.0],[665000.0,1659575.0],[664775.0,1659800.0],[664550.0,1660025.0],[664325.0,1660250.0],[664100.0,1660475.0],[663875.0,1660700.0],[663650.0,1660925.0],[663650.0,1661375.0],[663650.0,1661825.0],[663425.0,1662050.0],[663200.0,1662275.0],[663200.0,1662725.0],[663200.0,1663175.0],[662975.0,1663400.0],[662750.0,1663625.0],[662525.0,1663850.0],[662300.0,1664075.0],[662525.0,1664300.0],[662750.0,1664525.0],[662750.0,1664525.0]]]},"properties":{"layer":"Iron-formation ridges (DEM)","name":"ridge","color":"#7bd389"}},{"type":"Feature","geometry":{"type":"Polygon","coordinates":[[[703250.0,1664075.0],[703475.0,1664300.0],[703925.0,1664300.0],[704375.0,1664300.0],[704600.0,1664075.0],[704825.0,1663850.0],[705050.0,1663625.0],[704825.0,1663400.0],[704600.0,1663175.0],[704375.0,1662950.0],[703925.0,1662950.0],[703475.0,1662950.0],[703250.0,1663175.0],[703025.0,1663400.0],[702800.0,1663625.0],[703025.0,1663850.0],[703250.0,1664075.0],[703250.0,1664075.0]]]},"properties":{"layer":"Iron-formation ridges (DEM)","name":"ridge","color":"#7bd389"}},{"type":"Feature","geometry":{"type":"Polygon","coordinates":[[[701450.0,1663625.0],[701675.0,1663850.0],[702125.0,1663850.0],[702350.0,1663625.0],[702575.0,1663400.0],[702800.0,1663175.0],[702800.0,1662725.0],[702575.0,1662500.0],[702350.0,1662275.0],[702125.0,1662050.0],[701900.0,1661825.0],[701675.0,1661600.0],[701225.0,1661600.0],[701000.0,1661825.0],[700775.0,1662050.0],[700550.0,1662275.0],[700775.0,1662500.0],[701000.0,1662725.0],[701000.0,1663175.0],[701225.0,1663400.0],[701450.0,1663625.0],[701450.0,1663625.0]]]},"properties":{"layer":"Iron-formation ridges (DEM)","name":"ridge","color":"#7bd389"}},{"type":"Feature","geometry":{"type":"Point","coordinates":[671000.0,1660100.0]},"properties":{"layer":"Iron-ore mines","name":"Kumaraswamy","color":"#ffd166"}},{"type":"Feature","geometry":{"type":"Point","coordinates":[675500.0,1664300.0]},"properties":{"layer":"Iron-ore mines","name":"Donimalai","color":"#ffd166"}},{"type":"Feature","geometry":{"type":"Point","coordinates":[662000.0,1667000.0]},"properties":{"layer":"Iron-ore mines","name":"Ramandurg","color":"#ffd166"}},{"type":"Feature","geometry":{"type":"Point","coordinates":[665000.0,1675400.0]},"properties":{"layer":"Iron-ore mines","name":"NEB Range","color":"#ffd166"}},{"type":"Feature","geometry":{"type":"Polygon","coordinates":[[[672560.0,1659710.0],[673590.0,1659710.0],[673590.0,1660440.0],[672560.0,1660440.0],[672560.0,1659710.0]]]},"properties":{"layer":"Kumaraswamy blocks B, C","name":"Kumaraswamy block B","color":"#ffd166"}},{"type":"Feature","geometry":{"type":"Polygon","coordinates":[[[669250.0,1660000.0],[670870.0,1660000.0],[670870.0,1660390.0],[669250.0,1660390.0],[669250.0,1660000.0]]]},"properties":{"layer":"Kumaraswamy blocks B, C","name":"Kumaraswamy block C","color":"#ffd166"}},{"type":"Feature","geometry":{"type":"Point","coordinates":[668500.0,1680000.0]},"properties":{"layer":"Gold occurrences","name":"Joga","color":"#c77dff"}},{"type":"Feature","geometry":{"type":"Point","coordinates":[672500.0,1672200.0]},"properties":{"layer":"Gold occurrences","name":"Taranagar","color":"#c77dff"}},{"type":"Feature","geometry":{"type":"Polygon","coordinates":[[[700800.0,1661200.0],[711000.0,1661200.0],[711000.0,1668200.0],[700800.0,1668200.0],[700800.0,1661200.0]]]},"properties":{"layer":"Mincheri copper block (approx.)","name":"Mincheri block","color":"#4cc9f0"}},{"type":"Feature","geometry":{"type":"Point","coordinates":[649400.0,1688500.0]},"properties":{"layer":"Towns","name":"Hosapete","color":"#e9edc9"}},{"type":"Feature","geometry":{"type":"Point","coordinates":[666400.0,1668300.0]},"properties":{"layer":"Towns","name":"Sandur","color":"#e9edc9"}},{"type":"Feature","geometry":{"type":"Point","coordinates":[706500.0,1674600.0]},"properties":{"layer":"Towns","name":"Ballari","color":"#e9edc9"}}]}